{"type": "FeatureCollection", "features": [ {"type": "Feature", "properties": {"norad_id": 33841, "name": "COSMOS 2251 DEB", "group": "cosmos-2251-debris", "lat": 33.40284265931158, "lon": 68.30309425265152, "alt_km": 777.6635508479367, "timestamp": "2025-12-22T23:36:21.109358+00:00", "meta": {"OBJECT_NAME": "COSMOS 2251 DEB", "OBJECT_ID": "1993-036CJ", "EPOCH": "2025-12-21T12:41:28.292352", "MEAN_MOTION": 14.37872306, "ECCENTRICITY": 0.00208956, "INCLINATION": 74.0377, "RA_OF_ASC_NODE": 261.8602, "ARG_OF_PERICENTER": 340.5917, "MEAN_ANOMALY": 196.9374, "EPHEMERIS_TYPE": 0, "CLASSIFICATION_TYPE": "U", "NORAD_CAT_ID": 33841, "ELEMENT_SET_NO": 999, "REV_AT_EPOCH": 88240, "BSTAR": 0.00017641227, "MEAN_MOTION_DOT": 5.07e-06, "MEAN_MOTION_DDOT": 0}, "tle": {"line1": "1 33841U 93036CJ  25355.52879968  .00000507  00000+0  17641-3 0  9997", "line2": "2 33841  74.0377 261.8602 0020895 340.5917 196.9374 14.37872306882409"}}, "geometry": {"type": "Point", "coordinates": [68.30309425265152, 33.40284265931158]}}, {"type": "Feature", "properties": {"norad_id": 33842, "name": "COSMOS 2251 DEB", "group": "cosmos-2251-debris", "lat": -35.83232857446651, "lon": 32.57027882507607, "alt_km": 754.4151984393957, "timestamp": "2025-12-22T23:36:21.109368+00:00", "meta": {"OBJECT_NAME": "COSMOS 2251 DEB", "OBJECT_ID": "1993-036CK", "EPOCH": "2025-12-21T19:58:10.464384", "MEAN_MOTION": 14.42713502, "ECCENTRICITY": 0.00475209, "INCLINATION": 74.0318, "RA_OF_ASC_NODE": 202.7749, "ARG_OF_PERICENTER": 308.2972, "MEAN_ANOMALY": 51.3915, "EPHEMERIS_TYPE": 0, "CLASSIFICATION_TYPE": "U", "NORAD_CAT_ID": 33842, "ELEMENT_SET_NO": 999, "REV_AT_EPOCH": 88468, "BSTAR": 0.00020492381, "MEAN_MOTION_DOT": 6.64e-06, "MEAN_MOTION_DDOT": 0}, "tle": {"line1": "1 33842U 93036CK  25355.83206556  .00000664  00000+0  20492-3 0  9991", "line2": "2 33842  74.0318 202.7749 0047520 308.2972  51.3915 14.42713502884682"}}, "geometry": {"type": "Point", "coordinates": [32.57027882507607, -35.83232857446651]}}, {"type": "Feature", "properties": {"norad_id": 33844, "name": "COSMOS 2251 DEB", "group": "cosmos-2251-debris", "lat": 1.7869734264690202, "lon": -146.43362086876365, "alt_km": 801.0286339315726, "timestamp": "2025-12-22T23:36:21.109379+00:00", "meta": {"OBJECT_NAME": "COSMOS 2251 DEB", "OBJECT_ID": "1993-036CM", "EPOCH": "2025-12-22T13:17:13.009920", "MEAN_MOTION": 14.33734825, "ECCENTRICITY": 0.00471375, "INCLINATION": 74.0665, "RA_OF_ASC_NODE": 34.8617, "ARG_OF_PERICENTER": 53.6387, "MEAN_ANOMALY": 65.6499, "EPHEMERIS_TYPE": 0, "CLASSIFICATION_TYPE": "U", "NORAD_CAT_ID": 33844, "ELEMENT_SET_NO": 999, "REV_AT_EPOCH": 87866, "BSTAR": 0.00030951888, "MEAN_MOTION_DOT": 8.45e-06, "MEAN_MOTION_DDOT": 0}, "tle": {"line1": "1 33844U 93036CM  25356.55362280  .00000845  00000+0  30952-3 0  9993", "line2": "2 33844  74.0665  34.8617 0047137  53.6387  65.6499 14.33734825878669"}}, "geometry": {"type": "Point", "coordinates": [-146.43362086876365, 1.7869734264690202]}}, {"type": "Feature", "properties": {"norad_id": 33848, "name": "COSMOS 2251 DEB", "group": "cosmos-2251-debris", "lat": 17.95143296533373, "lon": -16.095315122130636, "alt_km": 715.9063827783166, "timestamp": "2025-12-22T23:36:21.109390+00:00", "meta": {"OBJECT_NAME": "COSMOS 2251 DEB", "OBJECT_ID": "1993-036CR", "EPOCH": "2025-12-22T09:06:02.087712", "MEAN_MOTION": 14.44124246, "ECCENTRICITY": 0.00417102, "INCLINATION": 74.0318, "RA_OF_ASC_NODE": 339.706, "ARG_OF_PERICENTER": 32.6758, "MEAN_ANOMALY": 85.3864, "EPHEMERIS_TYPE": 0, "CLASSIFICATION_TYPE": "U", "NORAD_CAT_ID": 33848, "ELEMENT_SET_NO": 999, "REV_AT_EPOCH": 87970, "BSTAR": 0.0010952854, "MEAN_MOTION_DOT": 3.768e-05, "MEAN_MOTION_DDOT": 0}, "tle": {"line1": "1 33848U 93036CR  25356.37919083  .00003768  00000+0  10953-2 0  9991", "line2": "2 33848  74.0318 339.7060 0041710  32.6758  85.3864 14.44124246879700"}}, "geometry": {"type": "Point", "coordinates": [-16.095315122130636, 17.95143296533373]}}, {"type": "Feature", "properties": {"norad_id": 33892, "name": "COSMOS 2251 DEB", "group": "cosmos-2251-debris", "lat": -71.12632058307868, "lon": -38.391893359629684, "alt_km": 888.8051754841954, "timestamp": "2025-12-22T23:36:21.109401+00:00", "meta": {"OBJECT_NAME": "COSMOS 2251 DEB", "OBJECT_ID": "1993-036CV", "EPOCH": "2025-12-22T07:28:39.074304", "MEAN_MOTION": 14.23368996, "ECCENTRICITY": 0.01122855, "INCLINATION": 73.8025, "RA_OF_ASC_NODE": 84.5961, "ARG_OF_PERICENTER": 113.9582, "MEAN_ANOMALY": 303.3766, "EPHEMERIS_TYPE": 0, "CLASSIFICATION_TYPE": "U", "NORAD_CAT_ID": 33892, "ELEMENT_SET_NO": 999, "REV_AT_EPOCH": 87091, "BSTAR": 0.0005803238, "MEAN_MOTION_DOT": 1.379e-05, "MEAN_MOTION_DDOT": 0}, "tle": {"line1": "1 33892U 93036CV  25356.31156336  .00001379  00000+0  58032-3 0  9995", "line2": "2 33892  73.8025  84.5961 0112285 113.9582 303.3766 14.23368996870917"}}, "geometry": {"type": "Point", "coordinates": [-38.391893359629684, -71.12632058307868]}}, {"type": "Feature", "properties": {"norad_id": 33894, "name": "COSMOS 2251 DEB", "group": "cosmos-2251-debris", "lat": 15.653491855736792, "lon": -22.088943655349937, "alt_km": 1414.2258197834735, "timestamp": "2025-12-22T23:36:21.109411+00:00", "meta": {"OBJECT_NAME": "COSMOS 2251 DEB", "OBJECT_ID": "1993-036CX", "EPOCH": "2025-12-21T16:37:48.062496", "MEAN_MOTION": 13.21322128, "ECCENTRICITY": 0.05789659, "INCLINATION": 73.7665, "RA_OF_ASC_NODE": 335.2246, "ARG_OF_PERICENTER": 253.4651, "MEAN_ANOMALY": 100.2107, "EPHEMERIS_TYPE": 0, "CLASSIFICATION_TYPE": "U", "NORAD_CAT_ID": 33894, "ELEMENT_SET_NO": 999, "REV_AT_EPOCH": 80826, "BSTAR": 0.00065478931, "MEAN_MOTION_DOT": 6.27e-06, "MEAN_MOTION_DDOT": 0}, "tle": {"line1": "1 33894U 93036CX  25355.69291739  .00000627  00000+0  65479-3 0  9992", "line2": "2 33894  73.7665 335.2246 0578965 253.4651 100.2107 13.21322128808264"}}, "geometry": {"type": "Point", "coordinates": [-22.088943655349937, 15.653491855736792]}}, {"type": "Feature", "properties": {"norad_id": 33896, "name": "COSMOS 2251 DEB", "group": "cosmos-2251-debris", "lat": 10.34485204424743, "lon": -44.96274475805282, "alt_km": 902.3474507442634, "timestamp": "2025-12-22T23:36:21.109422+00:00", "meta": {"OBJECT_NAME": "COSMOS 2251 DEB", "OBJECT_ID": "1993-036CZ", "EPOCH": "2025-12-22T03:21:01.521216", "MEAN_MOTION": 14.19058881, "ECCENTRICITY": 0.0126973, "INCLINATION": 73.7663, "RA_OF_ASC_NODE": 139.6176, "ARG_OF_PERICENTER": 313.8005, "MEAN_ANOMALY": 226.3125, "EPHEMERIS_TYPE": 0, "CLASSIFICATION_TYPE": "U", "NORAD_CAT_ID": 33896, "ELEMENT_SET_NO": 999, "REV_AT_EPOCH": 86873, "BSTAR": 0.00044902752, "MEAN_MOTION_DOT": 9.89e-06, "MEAN_MOTION_DDOT": 0}, "tle": {"line1": "1 33896U 93036CZ  25356.13960094  .00000989  00000+0  44903-3 0  9991", "line2": "2 33896  73.7663 139.6176 0126973 313.8005 226.3125 14.19058881868732"}}, "geometry": {"type": "Point", "coordinates": [-44.96274475805282, 10.34485204424743]}}, {"type": "Feature", "properties": {"norad_id": 33899, "name": "COSMOS 2251 DEB", "group": "cosmos-2251-debris", "lat": -53.4649198584114, "lon": 43.46018009302712, "alt_km": 735.3062150705782, "timestamp": "2025-12-22T23:36:21.109432+00:00", "meta": {"OBJECT_NAME": "COSMOS 2251 DEB", "OBJECT_ID": "1993-036DC", "EPOCH": "2025-12-22T10:47:48.630624", "MEAN_MOTION": 14.61267079, "ECCENTRICITY": 0.00560625, "INCLINATION": 74.0534, "RA_OF_ASC_NODE": 67.1796, "ARG_OF_PERICENTER": 127.0658, "MEAN_ANOMALY": 249.8301, "EPHEMERIS_TYPE": 0, "CLASSIFICATION_TYPE": "U", "NORAD_CAT_ID": 33899, "ELEMENT_SET_NO": 999, "REV_AT_EPOCH": 88981, "BSTAR": 0.00077291856, "MEAN_MOTION_DOT": 3.871e-05, "MEAN_MOTION_DDOT": 0}, "tle": {"line1": "1 33899U 93036DC  25356.44986841  .00003871  00000+0  77292-3 0  9996", "line2": "2 33899  74.0534  67.1796 0056062 127.0658 249.8301 14.61267079889815"}}, "geometry": {"type": "Point", "coordinates": [43.46018009302712, -53.4649198584114]}}, {"type": "Feature", "properties": {"norad_id": 33900, "name": "COSMOS 2251 DEB", "group": "cosmos-2251-debris", "lat": -50.77397561843958, "lon": -179.1026640015231, "alt_km": 712.8638052196529, "timestamp": "2025-12-22T23:36:21.109443+00:00", "meta": {"OBJECT_NAME": "COSMOS 2251 DEB", "OBJECT_ID": "1993-036DD", "EPOCH": "2025-12-22T14:51:53.751168", "MEAN_MOTION": 14.58379559, "ECCENTRICITY": 0.00464233, "INCLINATION": 74.0183, "RA_OF_ASC_NODE": 341.0384, "ARG_OF_PERICENTER": 130.2552, "MEAN_ANOMALY": 351.4893, "EPHEMERIS_TYPE": 0, "CLASSIFICATION_TYPE": "U", "NORAD_CAT_ID": 33900, "ELEMENT_SET_NO": 999, "REV_AT_EPOCH": 89180, "BSTAR": 0.00033104977, "MEAN_MOTION_DOT": 1.526e-05, "MEAN_MOTION_DDOT": 0}, "tle": {"line1": "1 33900U 93036DD  25356.61937212  .00001526  00000+0  33105-3 0  9996", "line2": "2 33900  74.0183 341.0384 0046423 130.2552 351.4893 14.58379559891805"}}, "geometry": {"type": "Point", "coordinates": [-179.1026640015231, -50.77397561843958]}}, {"type": "Feature", "properties": {"norad_id": 33901, "name": "COSMOS 2251 DEB", "group": "cosmos-2251-debris", "lat": -14.65464151672131, "lon": -148.03605938078258, "alt_km": 502.8217052799864, "timestamp": "2025-12-22T23:36:21.109453+00:00", "meta": {"OBJECT_NAME": "COSMOS 2251 DEB", "OBJECT_ID": "1993-036DE", "EPOCH": "2025-12-22T11:40:12.139968", "MEAN_MOTION": 15.16897442, "ECCENTRICITY": 0.00300228, "INCLINATION": 73.7742, "RA_OF_ASC_NODE": 28.6501, "ARG_OF_PERICENTER": 159.576, "MEAN_ANOMALY": 200.6642, "EPHEMERIS_TYPE": 0, "CLASSIFICATION_TYPE": "U", "NORAD_CAT_ID": 33901, "ELEMENT_SET_NO": 999, "REV_AT_EPOCH": 89661, "BSTAR": 0.0029824799, "MEAN_MOTION_DOT": 0.0005991, "MEAN_MOTION_DDOT": 0}, "tle": {"line1": "1 33901U 93036DE  25356.48625162  .00059910  00000+0  29825-2 0  9993", "line2": "2 33901  73.7742  28.6501 0030022 159.5760 200.6642 15.16897442896617"}}, "geometry": {"type": "Point", "coordinates": [-148.03605938078258, -14.65464151672131]}}]}